[Satellite]
VERSION=1.1
NAME=NOAA 2 [-]
NICKNAME=NOAA 2 [-]
TLE1=1 06235U 72082A   19317.47591035 -.00000048  00000-0 -17927-4 0  9994
TLE2=2 06235 101.8178 283.0391 0004299  87.9184 346.7436 12.53119871153584
STATUS=2
